STARLINK-33742          
1 63366U 25063D   26068.37728166  .00037156  00000+0  12602-2 0  9996
2 63366  53.1595  53.7714 0001342  80.6769 279.4384 15.30203480 54661
KUIPER-00222            
1 67782U 26030U   26068.67636257  .00055223  00000+0  17317-2 0  9992
2 67782  51.8817 219.7147 0012800  40.1845 320.0084 15.32445377  5087
